OBJECT C                
1 57582U 23117C   24332.18484068  .00014860  00000+0  67638-3 0  9995
2 57582  97.4708  42.3604 0011107  87.5034 272.7473 15.20746663 71910
